{"type": "FeatureCollection", "features": [{"type": "Feature", "geometry": {"type": "Polygon", "coordinates": [[[-118.134776, 34.192608], [-118.134499, 34.192608], [-118.134499, 34.192886], [-118.134776, 34.192886], [-118.134776, 34.192608]]]}, "properties": {"riesgo": 0.1937092151131139}}, {"type": "Feature", "geometry": {"type": "Polygon", "coordinates": [[[-118.134441, 34.192608], [-118.134163, 34.192608], [-118.134163, 34.192886], [-118.134441, 34.192886], [-118.134441, 34.192608]]]}, "properties": {"riesgo": 0.23835610915083744}}, {"type": "Feature", "geometry": {"type": "Polygon", "coordinates": [[[-118.134105, 34.192608], [-118.133827, 34.192608], [-118.133827, 34.192886], [-118.134105, 34.192886], [-118.134105, 34.192608]]]}, "properties": {"riesgo": 0.23835610915083744}}, {"type": "Feature", "geometry": {"type": "Polygon", "coordinates": [[[-118.133769, 34.192608], [-118.133491, 34.192608], [-118.133491, 34.192886], [-118.133769, 34.192886], [-118.133769, 34.192608]]]}, "properties": {"riesgo": 0.2572203849639402}}, {"type": "Feature", "geometry": {"type": "Polygon", "coordinates": [[[-118.133433, 34.192608], [-118.133156, 34.192608], [-118.133156, 34.192886], [-118.133433, 34.192886], [-118.133433, 34.192608]]]}, "properties": {"riesgo": 0.19700225878615235}}, {"type": "Feature", "geometry": {"type": "Polygon", "coordinates": [[[-118.133098, 34.192608], [-118.13282, 34.192608], [-118.13282, 34.192886], [-118.133098, 34.192886], [-118.133098, 34.192608]]]}, "properties": {"riesgo": 0.3133035471774445}}, {"type": "Feature", "geometry": {"type": "Polygon", "coordinates": [[[-118.132762, 34.192608], [-118.132484, 34.192608], [-118.132484, 34.192886], [-118.132762, 34.192886], [-118.132762, 34.192608]]]}, "properties": {"riesgo": 0.7}}, {"type": "Feature", "geometry": {"type": "Polygon", "coordinates": [[[-118.132426, 34.192608], [-118.132148, 34.192608], [-118.132148, 34.192886], [-118.132426, 34.192886], [-118.132426, 34.192608]]]}, "properties": {"riesgo": 0.3190637674666748}}, {"type": "Feature", "geometry": {"type": "Polygon", "coordinates": [[[-118.13209, 34.192608], [-118.131813, 34.192608], [-118.131813, 34.192886], [-118.13209, 34.192886], [-118.13209, 34.192608]]]}, "properties": {"riesgo": 0.33250252989305124}}, {"type": "Feature", "geometry": {"type": "Polygon", "coordinates": [[[-118.131755, 34.192608], [-118.131477, 34.192608], [-118.131477, 34.192886], [-118.131755, 34.192886], [-118.131755, 34.192608]]]}, "properties": {"riesgo": 0.34083908167852023}}, {"type": "Feature", "geometry": {"type": "Polygon", "coordinates": [[[-118.131419, 34.192608], [-118.131141, 34.192608], [-118.131141, 34.192886], [-118.131419, 34.192886], [-118.131419, 34.192608]]]}, "properties": {"riesgo": 0.2643346646167145}}, {"type": "Feature", "geometry": {"type": "Polygon", "coordinates": [[[-118.131083, 34.192608], [-118.130805, 34.192608], [-118.130805, 34.192886], [-118.131083, 34.192886], [-118.131083, 34.192608]]]}, "properties": {"riesgo": 0.2643346646167145}}, {"type": "Feature", "geometry": {"type": "Polygon", "coordinates": [[[-118.130747, 34.192608], [-118.13047, 34.192608], [-118.13047, 34.192886], [-118.130747, 34.192886], [-118.130747, 34.192608]]]}, "properties": {"riesgo": 0.36490924743188485}}, {"type": "Feature", "geometry": {"type": "Polygon", "coordinates": [[[-118.130412, 34.192608], [-118.130134, 34.192608], [-118.130134, 34.192886], [-118.130412, 34.192886], [-118.130412, 34.192608]]]}, "properties": {"riesgo": 0.2786562469356207}}, {"type": "Feature", "geometry": {"type": "Polygon", "coordinates": [[[-118.130076, 34.192608], [-118.129798, 34.192608], [-118.129798, 34.192886], [-118.130076, 34.192886], [-118.130076, 34.192608]]]}, "properties": {"riesgo": 0.3324484196059851}}, {"type": "Feature", "geometry": {"type": "Polygon", "coordinates": [[[-118.12974, 34.192608], [-118.129462, 34.192608], [-118.129462, 34.192886], [-118.12974, 34.192886], [-118.12974, 34.192608]]]}, "properties": {"riesgo": 0.3324484196059851}}, {"type": "Feature", "geometry": {"type": "Polygon", "coordinates": [[[-118.134776, 34.19233], [-118.134499, 34.19233], [-118.134499, 34.192608], [-118.134776, 34.192608], [-118.134776, 34.19233]]]}, "properties": {"riesgo": 0.22790355924674552}}, {"type": "Feature", "geometry": {"type": "Polygon", "coordinates": [[[-118.134441, 34.19233], [-118.134163, 34.19233], [-118.134163, 34.192608], [-118.134441, 34.192608], [-118.134441, 34.19233]]]}, "properties": {"riesgo": 0.2494752294213442}}, {"type": "Feature", "geometry": {"type": "Polygon", "coordinates": [[[-118.134105, 34.19233], [-118.133827, 34.19233], [-118.133827, 34.192608], [-118.134105, 34.192608], [-118.134105, 34.19233]]]}, "properties": {"riesgo": 0.7}}, {"type": "Feature", "geometry": {"type": "Polygon", "coordinates": [[[-118.133769, 34.19233], [-118.133491, 34.19233], [-118.133491, 34.192608], [-118.133769, 34.192608], [-118.133769, 34.19233]]]}, "properties": {"riesgo": 0.2559155881793169}}, {"type": "Feature", "geometry": {"type": "Polygon", "coordinates": [[[-118.133433, 34.19233], [-118.133156, 34.19233], [-118.133156, 34.192608], [-118.133433, 34.192608], [-118.133433, 34.19233]]]}, "properties": {"riesgo": 0.2293132239968447}}, {"type": "Feature", "geometry": {"type": "Polygon", "coordinates": [[[-118.133098, 34.19233], [-118.13282, 34.19233], [-118.13282, 34.192608], [-118.133098, 34.192608], [-118.133098, 34.19233]]]}, "properties": {"riesgo": 0.7}}, {"type": "Feature", "geometry": {"type": "Polygon", "coordinates": [[[-118.132762, 34.19233], [-118.132484, 34.19233], [-118.132484, 34.192608], [-118.132762, 34.192608], [-118.132762, 34.19233]]]}, "properties": {"riesgo": 1.0}}, {"type": "Feature", "geometry": {"type": "Polygon", "coordinates": [[[-118.132426, 34.19233], [-118.132148, 34.19233], [-118.132148, 34.192608], [-118.132426, 34.192608], [-118.132426, 34.19233]]]}, "properties": {"riesgo": 0.7}}, {"type": "Feature", "geometry": {"type": "Polygon", "coordinates": [[[-118.13209, 34.19233], [-118.131813, 34.19233], [-118.131813, 34.192608], [-118.13209, 34.192608], [-118.13209, 34.19233]]]}, "properties": {"riesgo": 0.3731117239333496}}, {"type": "Feature", "geometry": {"type": "Polygon", "coordinates": [[[-118.131755, 34.19233], [-118.131477, 34.19233], [-118.131477, 34.192608], [-118.131755, 34.192608], [-118.131755, 34.19233]]]}, "properties": {"riesgo": 0.3386138102151261}}, {"type": "Feature", "geometry": {"type": "Polygon", "coordinates": [[[-118.131419, 34.19233], [-118.131141, 34.19233], [-118.131141, 34.192608], [-118.131419, 34.192608], [-118.131419, 34.19233]]]}, "properties": {"riesgo": 0.2802221894003258}}, {"type": "Feature", "geometry": {"type": "Polygon", "coordinates": [[[-118.131083, 34.19233], [-118.130805, 34.19233], [-118.130805, 34.192608], [-118.131083, 34.192608], [-118.131083, 34.19233]]]}, "properties": {"riesgo": 0.2802221894003258}}, {"type": "Feature", "geometry": {"type": "Polygon", "coordinates": [[[-118.130747, 34.19233], [-118.13047, 34.19233], [-118.13047, 34.192608], [-118.130747, 34.192608], [-118.130747, 34.19233]]]}, "properties": {"riesgo": 0.7}}, {"type": "Feature", "geometry": {"type": "Polygon", "coordinates": [[[-118.130412, 34.19233], [-118.130134, 34.19233], [-118.130134, 34.192608], [-118.130412, 34.192608], [-118.130412, 34.19233]]]}, "properties": {"riesgo": 0.35155999687840017}}, {"type": "Feature", "geometry": {"type": "Polygon", "coordinates": [[[-118.130076, 34.19233], [-118.129798, 34.19233], [-118.129798, 34.192608], [-118.130076, 34.192608], [-118.130076, 34.19233]]]}, "properties": {"riesgo": 0.2789100488774923}}, {"type": "Feature", "geometry": {"type": "Polygon", "coordinates": [[[-118.12974, 34.19233], [-118.129462, 34.19233], [-118.129462, 34.192608], [-118.12974, 34.192608], [-118.12974, 34.19233]]]}, "properties": {"riesgo": 0.2789100488774923}}, {"type": "Feature", "geometry": {"type": "Polygon", "coordinates": [[[-118.134776, 34.192052], [-118.134499, 34.192052], [-118.134499, 34.19233], [-118.134776, 34.19233], [-118.134776, 34.192052]]]}, "properties": {"riesgo": 0.20953908447333855}}, {"type": "Feature", "geometry": {"type": "Polygon", "coordinates": [[[-118.134441, 34.192052], [-118.134163, 34.192052], [-118.134163, 34.19233], [-118.134441, 34.19233], [-118.134441, 34.192052]]]}, "properties": {"riesgo": 0.7}}, {"type": "Feature", "geometry": {"type": "Polygon", "coordinates": [[[-118.134105, 34.192052], [-118.133827, 34.192052], [-118.133827, 34.19233], [-118.134105, 34.19233], [-118.134105, 34.192052]]]}, "properties": {"riesgo": 1.0}}, {"type": "Feature", "geometry": {"type": "Polygon", "coordinates": [[[-118.133769, 34.192052], [-118.133491, 34.192052], [-118.133491, 34.19233], [-118.133769, 34.19233], [-118.133769, 34.192052]]]}, "properties": {"riesgo": 0.7}}, {"type": "Feature", "geometry": {"type": "Polygon", "coordinates": [[[-118.133433, 34.192052], [-118.133156, 34.192052], [-118.133156, 34.19233], [-118.133433, 34.19233], [-118.133433, 34.192052]]]}, "properties": {"riesgo": 0.2438608736188082}}, {"type": "Feature", "geometry": {"type": "Polygon", "coordinates": [[[-118.133098, 34.192052], [-118.13282, 34.192052], [-118.13282, 34.19233], [-118.133098, 34.19233], [-118.133098, 34.192052]]]}, "properties": {"riesgo": 0.31589874548139857}}, {"type": "Feature", "geometry": {"type": "Polygon", "coordinates": [[[-118.132762, 34.192052], [-118.132484, 34.192052], [-118.132484, 34.19233], [-118.132762, 34.19233], [-118.132762, 34.192052]]]}, "properties": {"riesgo": 0.7}}, {"type": "Feature", "geometry": {"type": "Polygon", "coordinates": [[[-118.132426, 34.192052], [-118.132148, 34.192052], [-118.132148, 34.19233], [-118.132426, 34.19233], [-118.132426, 34.192052]]]}, "properties": {"riesgo": 0.7}}, {"type": "Feature", "geometry": {"type": "Polygon", "coordinates": [[[-118.13209, 34.192052], [-118.131813, 34.192052], [-118.131813, 34.19233], [-118.13209, 34.19233], [-118.13209, 34.192052]]]}, "properties": {"riesgo": 0.7}}, {"type": "Feature", "geometry": {"type": "Polygon", "coordinates": [[[-118.131755, 34.192052], [-118.131477, 34.192052], [-118.131477, 34.19233], [-118.131755, 34.19233], [-118.131755, 34.192052]]]}, "properties": {"riesgo": 0.37911316421998603}}, {"type": "Feature", "geometry": {"type": "Polygon", "coordinates": [[[-118.131419, 34.192052], [-118.131141, 34.192052], [-118.131141, 34.19233], [-118.131419, 34.19233], [-118.131419, 34.192052]]]}, "properties": {"riesgo": 0.3111210044957505}}, {"type": "Feature", "geometry": {"type": "Polygon", "coordinates": [[[-118.131083, 34.192052], [-118.130805, 34.192052], [-118.130805, 34.19233], [-118.131083, 34.19233], [-118.131083, 34.192052]]]}, "properties": {"riesgo": 0.7}}, {"type": "Feature", "geometry": {"type": "Polygon", "coordinates": [[[-118.130747, 34.192052], [-118.13047, 34.192052], [-118.13047, 34.19233], [-118.130747, 34.19233], [-118.130747, 34.192052]]]}, "properties": {"riesgo": 1.0}}, {"type": "Feature", "geometry": {"type": "Polygon", "coordinates": [[[-118.130412, 34.192052], [-118.130134, 34.192052], [-118.130134, 34.19233], [-118.130412, 34.19233], [-118.130412, 34.192052]]]}, "properties": {"riesgo": 0.7}}, {"type": "Feature", "geometry": {"type": "Polygon", "coordinates": [[[-118.130076, 34.192052], [-118.129798, 34.192052], [-118.129798, 34.19233], [-118.130076, 34.19233], [-118.130076, 34.192052]]]}, "properties": {"riesgo": 0.3094649442784933}}, {"type": "Feature", "geometry": {"type": "Polygon", "coordinates": [[[-118.12974, 34.192052], [-118.129462, 34.192052], [-118.129462, 34.19233], [-118.12974, 34.19233], [-118.12974, 34.192052]]]}, "properties": {"riesgo": 0.3094649442784933}}, {"type": "Feature", "geometry": {"type": "Polygon", "coordinates": [[[-118.134776, 34.191775], [-118.134499, 34.191775], [-118.134499, 34.192052], [-118.134776, 34.192052], [-118.134776, 34.191775]]]}, "properties": {"riesgo": 0.1843590915591387}}, {"type": "Feature", "geometry": {"type": "Polygon", "coordinates": [[[-118.134441, 34.191775], [-118.134163, 34.191775], [-118.134163, 34.192052], [-118.134441, 34.192052], [-118.134441, 34.191775]]]}, "properties": {"riesgo": 0.21981849912711662}}, {"type": "Feature", "geometry": {"type": "Polygon", "coordinates": [[[-118.134105, 34.191775], [-118.133827, 34.191775], [-118.133827, 34.192052], [-118.134105, 34.192052], [-118.134105, 34.191775]]]}, "properties": {"riesgo": 0.7}}, {"type": "Feature", "geometry": {"type": "Polygon", "coordinates": [[[-118.133769, 34.191775], [-118.133491, 34.191775], [-118.133491, 34.192052], [-118.133769, 34.192052], [-118.133769, 34.191775]]]}, "properties": {"riesgo": 0.2351709854991106}}, {"type": "Feature", "geometry": {"type": "Polygon", "coordinates": [[[-118.133433, 34.191775], [-118.133156, 34.191775], [-118.133156, 34.192052], [-118.133433, 34.192052], [-118.133433, 34.191775]]]}, "properties": {"riesgo": 0.7}}, {"type": "Feature", "geometry": {"type": "Polygon", "coordinates": [[[-118.133098, 34.191775], [-118.13282, 34.191775], [-118.13282, 34.192052], [-118.133098, 34.192052], [-118.133098, 34.191775]]]}, "properties": {"riesgo": 0.271668816630271}}, {"type": "Feature", "geometry": {"type": "Polygon", "coordinates": [[[-118.132762, 34.191775], [-118.132484, 34.191775], [-118.132484, 34.192052], [-118.132762, 34.192052], [-118.132762, 34.191775]]]}, "properties": {"riesgo": 0.7}}, {"type": "Feature", "geometry": {"type": "Polygon", "coordinates": [[[-118.132426, 34.191775], [-118.132148, 34.191775], [-118.132148, 34.192052], [-118.132426, 34.192052], [-118.132426, 34.191775]]]}, "properties": {"riesgo": 0.7}}, {"type": "Feature", "geometry": {"type": "Polygon", "coordinates": [[[-118.13209, 34.191775], [-118.131813, 34.191775], [-118.131813, 34.192052], [-118.13209, 34.192052], [-118.13209, 34.191775]]]}, "properties": {"riesgo": 1.0}}, {"type": "Feature", "geometry": {"type": "Polygon", "coordinates": [[[-118.131755, 34.191775], [-118.131477, 34.191775], [-118.131477, 34.192052], [-118.131755, 34.192052], [-118.131755, 34.191775]]]}, "properties": {"riesgo": 0.7}}, {"type": "Feature", "geometry": {"type": "Polygon", "coordinates": [[[-118.131419, 34.191775], [-118.131141, 34.191775], [-118.131141, 34.192052], [-118.131419, 34.192052], [-118.131419, 34.191775]]]}, "properties": {"riesgo": 0.3059684434272156}}, {"type": "Feature", "geometry": {"type": "Polygon", "coordinates": [[[-118.131083, 34.191775], [-118.130805, 34.191775], [-118.130805, 34.192052], [-118.131083, 34.192052], [-118.131083, 34.191775]]]}, "properties": {"riesgo": 0.3059684434272156}}, {"type": "Feature", "geometry": {"type": "Polygon", "coordinates": [[[-118.130747, 34.191775], [-118.13047, 34.191775], [-118.13047, 34.192052], [-118.130747, 34.192052], [-118.130747, 34.191775]]]}, "properties": {"riesgo": 0.7}}, {"type": "Feature", "geometry": {"type": "Polygon", "coordinates": [[[-118.130412, 34.191775], [-118.130134, 34.191775], [-118.130134, 34.192052], [-118.130412, 34.192052], [-118.130412, 34.191775]]]}, "properties": {"riesgo": 0.29348076728512323}}, {"type": "Feature", "geometry": {"type": "Polygon", "coordinates": [[[-118.130076, 34.191775], [-118.129798, 34.191775], [-118.129798, 34.192052], [-118.130076, 34.192052], [-118.130076, 34.191775]]]}, "properties": {"riesgo": 0.3081467619292883}}, {"type": "Feature", "geometry": {"type": "Polygon", "coordinates": [[[-118.12974, 34.191775], [-118.129462, 34.191775], [-118.129462, 34.192052], [-118.12974, 34.192052], [-118.12974, 34.191775]]]}, "properties": {"riesgo": 0.3081467619292883}}, {"type": "Feature", "geometry": {"type": "Polygon", "coordinates": [[[-118.134776, 34.191497], [-118.134499, 34.191497], [-118.134499, 34.191775], [-118.134776, 34.191775], [-118.134776, 34.191497]]]}, "properties": {"riesgo": 0.1843590915591387}}, {"type": "Feature", "geometry": {"type": "Polygon", "coordinates": [[[-118.134441, 34.191497], [-118.134163, 34.191497], [-118.134163, 34.191775], [-118.134441, 34.191775], [-118.134441, 34.191497]]]}, "properties": {"riesgo": 0.21981849912711662}}, {"type": "Feature", "geometry": {"type": "Polygon", "coordinates": [[[-118.134105, 34.191497], [-118.133827, 34.191497], [-118.133827, 34.191775], [-118.134105, 34.191775], [-118.134105, 34.191497]]]}, "properties": {"riesgo": 0.21981849912711662}}, {"type": "Feature", "geometry": {"type": "Polygon", "coordinates": [[[-118.133769, 34.191497], [-118.133491, 34.191497], [-118.133491, 34.191775], [-118.133769, 34.191775], [-118.133769, 34.191497]]]}, "properties": {"riesgo": 0.7}}, {"type": "Feature", "geometry": {"type": "Polygon", "coordinates": [[[-118.133433, 34.191497], [-118.133156, 34.191497], [-118.133156, 34.191775], [-118.133433, 34.191775], [-118.133433, 34.191497]]]}, "properties": {"riesgo": 0.7}}, {"type": "Feature", "geometry": {"type": "Polygon", "coordinates": [[[-118.133098, 34.191497], [-118.13282, 34.191497], [-118.13282, 34.191775], [-118.133098, 34.191775], [-118.133098, 34.191497]]]}, "properties": {"riesgo": 0.7}}, {"type": "Feature", "geometry": {"type": "Polygon", "coordinates": [[[-118.132762, 34.191497], [-118.132484, 34.191497], [-118.132484, 34.191775], [-118.132762, 34.191775], [-118.132762, 34.191497]]]}, "properties": {"riesgo": 0.5083207867783575}}, {"type": "Feature", "geometry": {"type": "Polygon", "coordinates": [[[-118.132426, 34.191497], [-118.132148, 34.191497], [-118.132148, 34.191775], [-118.132426, 34.191775], [-118.132426, 34.191497]]]}, "properties": {"riesgo": 0.7}}, {"type": "Feature", "geometry": {"type": "Polygon", "coordinates": [[[-118.13209, 34.191497], [-118.131813, 34.191497], [-118.131813, 34.191775], [-118.13209, 34.191775], [-118.13209, 34.191497]]]}, "properties": {"riesgo": 0.7}}, {"type": "Feature", "geometry": {"type": "Polygon", "coordinates": [[[-118.131755, 34.191497], [-118.131477, 34.191497], [-118.131477, 34.191775], [-118.131755, 34.191775], [-118.131755, 34.191497]]]}, "properties": {"riesgo": 0.3563773183268576}}, {"type": "Feature", "geometry": {"type": "Polygon", "coordinates": [[[-118.131419, 34.191497], [-118.131141, 34.191497], [-118.131141, 34.191775], [-118.131419, 34.191775], [-118.131419, 34.191497]]]}, "properties": {"riesgo": 0.3059784655016927}}, {"type": "Feature", "geometry": {"type": "Polygon", "coordinates": [[[-118.131083, 34.191497], [-118.130805, 34.191497], [-118.130805, 34.191775], [-118.131083, 34.191775], [-118.131083, 34.191497]]]}, "properties": {"riesgo": 0.3059784655016927}}, {"type": "Feature", "geometry": {"type": "Polygon", "coordinates": [[[-118.130747, 34.191497], [-118.13047, 34.191497], [-118.13047, 34.191775], [-118.130747, 34.191775], [-118.130747, 34.191497]]]}, "properties": {"riesgo": 0.37782894474687856}}, {"type": "Feature", "geometry": {"type": "Polygon", "coordinates": [[[-118.130412, 34.191497], [-118.130134, 34.191497], [-118.130134, 34.191775], [-118.130412, 34.191775], [-118.130412, 34.191497]]]}, "properties": {"riesgo": 0.7}}, {"type": "Feature", "geometry": {"type": "Polygon", "coordinates": [[[-118.130076, 34.191497], [-118.129798, 34.191497], [-118.129798, 34.191775], [-118.130076, 34.191775], [-118.130076, 34.191497]]]}, "properties": {"riesgo": 0.30815678400376545}}, {"type": "Feature", "geometry": {"type": "Polygon", "coordinates": [[[-118.12974, 34.191497], [-118.129462, 34.191497], [-118.129462, 34.191775], [-118.12974, 34.191775], [-118.12974, 34.191497]]]}, "properties": {"riesgo": 0.30815678400376545}}, {"type": "Feature", "geometry": {"type": "Polygon", "coordinates": [[[-118.134776, 34.191219], [-118.134499, 34.191219], [-118.134499, 34.191497], [-118.134776, 34.191497], [-118.134776, 34.191219]]]}, "properties": {"riesgo": 0.2938263682761928}}, {"type": "Feature", "geometry": {"type": "Polygon", "coordinates": [[[-118.134441, 34.191219], [-118.134163, 34.191219], [-118.134163, 34.191497], [-118.134441, 34.191497], [-118.134441, 34.191219]]]}, "properties": {"riesgo": 0.3498724756875774}}, {"type": "Feature", "geometry": {"type": "Polygon", "coordinates": [[[-118.134105, 34.191219], [-118.133827, 34.191219], [-118.133827, 34.191497], [-118.134105, 34.191497], [-118.134105, 34.191219]]]}, "properties": {"riesgo": 0.3498724756875774}}, {"type": "Feature", "geometry": {"type": "Polygon", "coordinates": [[[-118.133769, 34.191219], [-118.133491, 34.191219], [-118.133491, 34.191497], [-118.133769, 34.191497], [-118.133769, 34.191219]]]}, "properties": {"riesgo": 0.7}}, {"type": "Feature", "geometry": {"type": "Polygon", "coordinates": [[[-118.133433, 34.191219], [-118.133156, 34.191219], [-118.133156, 34.191497], [-118.133433, 34.191497], [-118.133433, 34.191219]]]}, "properties": {"riesgo": 1.0}}, {"type": "Feature", "geometry": {"type": "Polygon", "coordinates": [[[-118.133098, 34.191219], [-118.13282, 34.191219], [-118.13282, 34.191497], [-118.133098, 34.191497], [-118.133098, 34.191219]]]}, "properties": {"riesgo": 0.7}}, {"type": "Feature", "geometry": {"type": "Polygon", "coordinates": [[[-118.132762, 34.191219], [-118.132484, 34.191219], [-118.132484, 34.191497], [-118.132762, 34.191497], [-118.132762, 34.191219]]]}, "properties": {"riesgo": 0.582240228095737}}, {"type": "Feature", "geometry": {"type": "Polygon", "coordinates": [[[-118.132426, 34.191219], [-118.132148, 34.191219], [-118.132148, 34.191497], [-118.132426, 34.191497], [-118.132426, 34.191219]]]}, "properties": {"riesgo": 0.40608291331836266}}, {"type": "Feature", "geometry": {"type": "Polygon", "coordinates": [[[-118.13209, 34.191219], [-118.131813, 34.191219], [-118.131813, 34.191497], [-118.13209, 34.191497], [-118.13209, 34.191219]]]}, "properties": {"riesgo": 0.36687795940944234}}, {"type": "Feature", "geometry": {"type": "Polygon", "coordinates": [[[-118.131755, 34.191219], [-118.131477, 34.191219], [-118.131477, 34.191497], [-118.131755, 34.191497], [-118.131755, 34.191219]]]}, "properties": {"riesgo": 0.30525346968480627}}, {"type": "Feature", "geometry": {"type": "Polygon", "coordinates": [[[-118.131419, 34.191219], [-118.131141, 34.191219], [-118.131141, 34.191497], [-118.131419, 34.191497], [-118.131419, 34.191219]]]}, "properties": {"riesgo": 0.35609492156812234}}, {"type": "Feature", "geometry": {"type": "Polygon", "coordinates": [[[-118.131083, 34.191219], [-118.130805, 34.191219], [-118.130805, 34.191497], [-118.131083, 34.191497], [-118.131083, 34.191219]]]}, "properties": {"riesgo": 0.35609492156812234}}, {"type": "Feature", "geometry": {"type": "Polygon", "coordinates": [[[-118.130747, 34.191219], [-118.13047, 34.191219], [-118.13047, 34.191497], [-118.130747, 34.191497], [-118.130747, 34.191219]]]}, "properties": {"riesgo": 0.7}}, {"type": "Feature", "geometry": {"type": "Polygon", "coordinates": [[[-118.130412, 34.191219], [-118.130134, 34.191219], [-118.130134, 34.191497], [-118.130412, 34.191497], [-118.130412, 34.191219]]]}, "properties": {"riesgo": 1.0}}, {"type": "Feature", "geometry": {"type": "Polygon", "coordinates": [[[-118.130076, 34.191219], [-118.129798, 34.191219], [-118.129798, 34.191497], [-118.130076, 34.191497], [-118.130076, 34.191219]]]}, "properties": {"riesgo": 0.7}}, {"type": "Feature", "geometry": {"type": "Polygon", "coordinates": [[[-118.12974, 34.191219], [-118.129462, 34.191219], [-118.129462, 34.191497], [-118.12974, 34.191497], [-118.12974, 34.191219]]]}, "properties": {"riesgo": 0.314894783321931}}, {"type": "Feature", "geometry": {"type": "Polygon", "coordinates": [[[-118.134776, 34.190941], [-118.134499, 34.190941], [-118.134499, 34.191219], [-118.134776, 34.191219], [-118.134776, 34.190941]]]}, "properties": {"riesgo": 0.27261682254464825}}, {"type": "Feature", "geometry": {"type": "Polygon", "coordinates": [[[-118.134441, 34.190941], [-118.134163, 34.190941], [-118.134163, 34.191219], [-118.134441, 34.191219], [-118.134441, 34.190941]]]}, "properties": {"riesgo": 0.3111517284551402}}, {"type": "Feature", "geometry": {"type": "Polygon", "coordinates": [[[-118.134105, 34.190941], [-118.133827, 34.190941], [-118.133827, 34.191219], [-118.134105, 34.191219], [-118.134105, 34.190941]]]}, "properties": {"riesgo": 0.3111517284551402}}, {"type": "Feature", "geometry": {"type": "Polygon", "coordinates": [[[-118.133769, 34.190941], [-118.133491, 34.190941], [-118.133491, 34.191219], [-118.133769, 34.191219], [-118.133769, 34.190941]]]}, "properties": {"riesgo": 0.33757164878041945}}, {"type": "Feature", "geometry": {"type": "Polygon", "coordinates": [[[-118.133433, 34.190941], [-118.133156, 34.190941], [-118.133156, 34.191219], [-118.133433, 34.191219], [-118.133433, 34.190941]]]}, "properties": {"riesgo": 0.7}}, {"type": "Feature", "geometry": {"type": "Polygon", "coordinates": [[[-118.133098, 34.190941], [-118.13282, 34.190941], [-118.13282, 34.191219], [-118.133098, 34.191219], [-118.133098, 34.190941]]]}, "properties": {"riesgo": 0.37110099677154107}}, {"type": "Feature", "geometry": {"type": "Polygon", "coordinates": [[[-118.132762, 34.190941], [-118.132484, 34.190941], [-118.132484, 34.191219], [-118.132762, 34.191219], [-118.132762, 34.190941]]]}, "properties": {"riesgo": 0.37110099677154107}}, {"type": "Feature", "geometry": {"type": "Polygon", "coordinates": [[[-118.132426, 34.190941], [-118.132148, 34.190941], [-118.132148, 34.191219], [-118.132426, 34.191219], [-118.132426, 34.190941]]]}, "properties": {"riesgo": 0.328781150916305}}, {"type": "Feature", "geometry": {"type": "Polygon", "coordinates": [[[-118.13209, 34.190941], [-118.131813, 34.190941], [-118.131813, 34.191219], [-118.13209, 34.191219], [-118.13209, 34.190941]]]}, "properties": {"riesgo": 0.4006160527856021}}, {"type": "Feature", "geometry": {"type": "Polygon", "coordinates": [[[-118.131755, 34.190941], [-118.131477, 34.190941], [-118.131477, 34.191219], [-118.131755, 34.191219], [-118.131755, 34.190941]]]}, "properties": {"riesgo": 0.38907942895003833}}, {"type": "Feature", "geometry": {"type": "Polygon", "coordinates": [[[-118.131419, 34.190941], [-118.131141, 34.190941], [-118.131141, 34.191219], [-118.131419, 34.191219], [-118.131419, 34.190941]]]}, "properties": {"riesgo": 0.3709915531069903}}, {"type": "Feature", "geometry": {"type": "Polygon", "coordinates": [[[-118.131083, 34.190941], [-118.130805, 34.190941], [-118.130805, 34.191219], [-118.131083, 34.191219], [-118.131083, 34.190941]]]}, "properties": {"riesgo": 0.3709915531069903}}, {"type": "Feature", "geometry": {"type": "Polygon", "coordinates": [[[-118.130747, 34.190941], [-118.13047, 34.190941], [-118.13047, 34.191219], [-118.130747, 34.191219], [-118.130747, 34.190941]]]}, "properties": {"riesgo": 0.3391208252699046}}, {"type": "Feature", "geometry": {"type": "Polygon", "coordinates": [[[-118.130412, 34.190941], [-118.130134, 34.190941], [-118.130134, 34.191219], [-118.130412, 34.191219], [-118.130412, 34.190941]]]}, "properties": {"riesgo": 0.7}}, {"type": "Feature", "geometry": {"type": "Polygon", "coordinates": [[[-118.130076, 34.190941], [-118.129798, 34.190941], [-118.129798, 34.191219], [-118.130076, 34.191219], [-118.130076, 34.190941]]]}, "properties": {"riesgo": 0.31064429444463454}}, {"type": "Feature", "geometry": {"type": "Polygon", "coordinates": [[[-118.12974, 34.190941], [-118.129462, 34.190941], [-118.129462, 34.191219], [-118.12974, 34.191219], [-118.12974, 34.190941]]]}, "properties": {"riesgo": 0.31064429444463454}}, {"type": "Feature", "geometry": {"type": "Polygon", "coordinates": [[[-118.134776, 34.190664], [-118.134499, 34.190664], [-118.134499, 34.190941], [-118.134776, 34.190941], [-118.134776, 34.190664]]]}, "properties": {"riesgo": 0.3067253401939816}}, {"type": "Feature", "geometry": {"type": "Polygon", "coordinates": [[[-118.134441, 34.190664], [-118.134163, 34.190664], [-118.134163, 34.190941], [-118.134441, 34.190941], [-118.134441, 34.190664]]]}, "properties": {"riesgo": 0.2957401701872296}}, {"type": "Feature", "geometry": {"type": "Polygon", "coordinates": [[[-118.134105, 34.190664], [-118.133827, 34.190664], [-118.133827, 34.190941], [-118.134105, 34.190941], [-118.134105, 34.190664]]]}, "properties": {"riesgo": 0.2957401701872296}}, {"type": "Feature", "geometry": {"type": "Polygon", "coordinates": [[[-118.133769, 34.190664], [-118.133491, 34.190664], [-118.133491, 34.190941], [-118.133769, 34.190941], [-118.133769, 34.190664]]]}, "properties": {"riesgo": 0.3086004802648969}}, {"type": "Feature", "geometry": {"type": "Polygon", "coordinates": [[[-118.133433, 34.190664], [-118.133156, 34.190664], [-118.133156, 34.190941], [-118.133433, 34.190941], [-118.133433, 34.190664]]]}, "properties": {"riesgo": 0.3223219230835385}}, {"type": "Feature", "geometry": {"type": "Polygon", "coordinates": [[[-118.133098, 34.190664], [-118.13282, 34.190664], [-118.13282, 34.190941], [-118.133098, 34.190941], [-118.133098, 34.190664]]]}, "properties": {"riesgo": 0.38023896388376505}}, {"type": "Feature", "geometry": {"type": "Polygon", "coordinates": [[[-118.132762, 34.190664], [-118.132484, 34.190664], [-118.132484, 34.190941], [-118.132762, 34.190941], [-118.132762, 34.190664]]]}, "properties": {"riesgo": 0.38023896388376505}}, {"type": "Feature", "geometry": {"type": "Polygon", "coordinates": [[[-118.132426, 34.190664], [-118.132148, 34.190664], [-118.132148, 34.190941], [-118.132426, 34.190941], [-118.132426, 34.190664]]]}, "properties": {"riesgo": 0.33613065294588357}}, {"type": "Feature", "geometry": {"type": "Polygon", "coordinates": [[[-118.13209, 34.190664], [-118.131813, 34.190664], [-118.131813, 34.190941], [-118.13209, 34.190941], [-118.13209, 34.190664]]]}, "properties": {"riesgo": 0.37084045521581915}}, {"type": "Feature", "geometry": {"type": "Polygon", "coordinates": [[[-118.131755, 34.190664], [-118.131477, 34.190664], [-118.131477, 34.190941], [-118.131755, 34.190941], [-118.131755, 34.190664]]]}, "properties": {"riesgo": 0.3829822694476918}}, {"type": "Feature", "geometry": {"type": "Polygon", "coordinates": [[[-118.131419, 34.190664], [-118.131141, 34.190664], [-118.131141, 34.190941], [-118.131419, 34.190941], [-118.131419, 34.190664]]]}, "properties": {"riesgo": 0.33473952267476603}}, {"type": "Feature", "geometry": {"type": "Polygon", "coordinates": [[[-118.131083, 34.190664], [-118.130805, 34.190664], [-118.130805, 34.190941], [-118.131083, 34.190941], [-118.131083, 34.190664]]]}, "properties": {"riesgo": 0.33473952267476603}}, {"type": "Feature", "geometry": {"type": "Polygon", "coordinates": [[[-118.130747, 34.190664], [-118.13047, 34.190664], [-118.13047, 34.190941], [-118.130747, 34.190941], [-118.130747, 34.190664]]]}, "properties": {"riesgo": 0.400026841798511}}, {"type": "Feature", "geometry": {"type": "Polygon", "coordinates": [[[-118.130412, 34.190664], [-118.130134, 34.190664], [-118.130134, 34.190941], [-118.130412, 34.190941], [-118.130412, 34.190664]]]}, "properties": {"riesgo": 0.3128303478399058}}, {"type": "Feature", "geometry": {"type": "Polygon", "coordinates": [[[-118.130076, 34.190664], [-118.129798, 34.190664], [-118.129798, 34.190941], [-118.130076, 34.190941], [-118.130076, 34.190664]]]}, "properties": {"riesgo": 0.29705377859266}}, {"type": "Feature", "geometry": {"type": "Polygon", "coordinates": [[[-118.12974, 34.190664], [-118.129462, 34.190664], [-118.129462, 34.190941], [-118.12974, 34.190941], [-118.12974, 34.190664]]]}, "properties": {"riesgo": 0.29705377859266}}, {"type": "Feature", "geometry": {"type": "Polygon", "coordinates": [[[-118.134776, 34.190386], [-118.134499, 34.190386], [-118.134499, 34.190664], [-118.134776, 34.190664], [-118.134776, 34.190386]]]}, "properties": {"riesgo": 0.3067253401939816}}, {"type": "Feature", "geometry": {"type": "Polygon", "coordinates": [[[-118.134441, 34.190386], [-118.134163, 34.190386], [-118.134163, 34.190664], [-118.134441, 34.190664], [-118.134441, 34.190386]]]}, "properties": {"riesgo": 0.2957401701872296}}, {"type": "Feature", "geometry": {"type": "Polygon", "coordinates": [[[-118.134105, 34.190386], [-118.133827, 34.190386], [-118.133827, 34.190664], [-118.134105, 34.190664], [-118.134105, 34.190386]]]}, "properties": {"riesgo": 0.2957401701872296}}, {"type": "Feature", "geometry": {"type": "Polygon", "coordinates": [[[-118.133769, 34.190386], [-118.133491, 34.190386], [-118.133491, 34.190664], [-118.133769, 34.190664], [-118.133769, 34.190386]]]}, "properties": {"riesgo": 0.3086004802648969}}, {"type": "Feature", "geometry": {"type": "Polygon", "coordinates": [[[-118.133433, 34.190386], [-118.133156, 34.190386], [-118.133156, 34.190664], [-118.133433, 34.190664], [-118.133433, 34.190386]]]}, "properties": {"riesgo": 0.3223219230835385}}, {"type": "Feature", "geometry": {"type": "Polygon", "coordinates": [[[-118.133098, 34.190386], [-118.13282, 34.190386], [-118.13282, 34.190664], [-118.133098, 34.190664], [-118.133098, 34.190386]]]}, "properties": {"riesgo": 0.38023896388376505}}, {"type": "Feature", "geometry": {"type": "Polygon", "coordinates": [[[-118.132762, 34.190386], [-118.132484, 34.190386], [-118.132484, 34.190664], [-118.132762, 34.190664], [-118.132762, 34.190386]]]}, "properties": {"riesgo": 0.38023896388376505}}, {"type": "Feature", "geometry": {"type": "Polygon", "coordinates": [[[-118.132426, 34.190386], [-118.132148, 34.190386], [-118.132148, 34.190664], [-118.132426, 34.190664], [-118.132426, 34.190386]]]}, "properties": {"riesgo": 0.33613065294588357}}, {"type": "Feature", "geometry": {"type": "Polygon", "coordinates": [[[-118.13209, 34.190386], [-118.131813, 34.190386], [-118.131813, 34.190664], [-118.13209, 34.190664], [-118.13209, 34.190386]]]}, "properties": {"riesgo": 0.37084045521581915}}, {"type": "Feature", "geometry": {"type": "Polygon", "coordinates": [[[-118.131755, 34.190386], [-118.131477, 34.190386], [-118.131477, 34.190664], [-118.131755, 34.190664], [-118.131755, 34.190386]]]}, "properties": {"riesgo": 0.3829822694476918}}, {"type": "Feature", "geometry": {"type": "Polygon", "coordinates": [[[-118.131419, 34.190386], [-118.131141, 34.190386], [-118.131141, 34.190664], [-118.131419, 34.190664], [-118.131419, 34.190386]]]}, "properties": {"riesgo": 0.33392990682431745}}, {"type": "Feature", "geometry": {"type": "Polygon", "coordinates": [[[-118.131083, 34.190386], [-118.130805, 34.190386], [-118.130805, 34.190664], [-118.131083, 34.190664], [-118.131083, 34.190386]]]}, "properties": {"riesgo": 0.33392990682431745}}, {"type": "Feature", "geometry": {"type": "Polygon", "coordinates": [[[-118.130747, 34.190386], [-118.13047, 34.190386], [-118.13047, 34.190664], [-118.130747, 34.190664], [-118.130747, 34.190386]]]}, "properties": {"riesgo": 0.41509625140735196}}, {"type": "Feature", "geometry": {"type": "Polygon", "coordinates": [[[-118.130412, 34.190386], [-118.130134, 34.190386], [-118.130134, 34.190664], [-118.130412, 34.190664], [-118.130412, 34.190386]]]}, "properties": {"riesgo": 0.30776410502584184}}, {"type": "Feature", "geometry": {"type": "Polygon", "coordinates": [[[-118.130076, 34.190386], [-118.129798, 34.190386], [-118.129798, 34.190664], [-118.130076, 34.190664], [-118.130076, 34.190386]]]}, "properties": {"riesgo": 0.3325222573915263}}, {"type": "Feature", "geometry": {"type": "Polygon", "coordinates": [[[-118.12974, 34.190386], [-118.129462, 34.190386], [-118.129462, 34.190664], [-118.12974, 34.190664], [-118.12974, 34.190386]]]}, "properties": {"riesgo": 0.3325222573915263}}]}